STARLINK-1068
1 44772U 19074BM  26092.81730725  .00105341  00000+0  95853-3 0  9993
2 44772  53.0463  61.3755 0004554  36.5011 323.6314 15.67141550352623
